NORAD_CAT_ID,OBJECT_NAME,OBJECT_TYPE,EPOCH,MEAN_MOTION,ECCENTRICITY,INCLINATION,RA_OF_ASC_NODE,ARG_OF_PERICENTER,MEAN_ANOMALY,BSTAR,MEAN_MOTION_DOT,MEAN_MOTION_DDOT,TLE_LINE0,TLE_LINE1,TLE_LINE2,SEMIMAJOR_AXIS,PERIOD,APOGEE,PERIGEE,DECAYED
55741.0,STARLINK-5592,PAYLOAD,2024-02-04 04:43:39,14.98323889,0.0002974,70.0003,12.1278,269.9229,90.159,0.00011004,1.22e-05,0.0,0 STARLINK-5592,1 55741U 23028A   24035.19698532  .00001220  00000-0  11004-3 0  9998,2 55741  70.0003  12.1278 0002974 269.9229  90.1590 14.98323889 51517,6950.212,96.107,574.144,570.01,0.0
55741.0,STARLINK-5592,PAYLOAD,2024-02-04 07:55:55,14.98326411,0.0002907,70.0005,11.7912,270.3584,89.7241,0.0001407,1.586e-05,0.0,0 STARLINK-5592,1 55741U 23028A   24035.33050375  .00001586  00000-0  14070-3 0  9992,2 55741  70.0005  11.7912 0002907 270.3584  89.7241 14.98326411 51730,6950.204,96.107,574.089,570.049,0.0
55741.0,STARLINK-5592,PAYLOAD,2024-02-04 22:21:08,14.98328499,0.0002777,70.0009,10.2762,269.1573,90.9268,3.4494e-06,-5.2e-07,0.0,0 STARLINK-5592,1 55741U 23028A   24035.93134723 -.00000052  00000-0  34494-5 0  9990,2 55741  70.0009  10.2762 0002777 269.1573  90.9268 14.98328499 51821,6950.198,96.107,573.993,570.132,0.0
55741.0,STARLINK-5592,PAYLOAD,2024-02-05 11:10:12,14.98337421,0.0003071,70.0003,8.9294,268.9772,91.1035,6.9855e-05,7.41e-06,0.0,0 STARLINK-5592,1 55741U 23028A   24036.46541935  .00000741  00000-0  69855-4 0  9998,2 55741  70.0003   8.9294 0003071 268.9772  91.1035 14.98337421 51702,6950.17,96.107,574.169,569.901,0.0
55741.0,STARLINK-5592,PAYLOAD,2024-02-05 12:46:20,14.98337729,0.0003091,70.0002,8.7611,268.9331,91.1473,6.2344e-05,6.51e-06,0.0,0 STARLINK-5592,1 55741U 23028A   24036.53217925  .00000651  00000-0  62344-4 0  9991,2 55741  70.0002   8.7611 0003091 268.9331  91.1473 14.98337729 51915,6950.169,96.107,574.182,569.886,0.0
55741.0,STARLINK-5592,PAYLOAD,2024-02-05 17:34:45,14.98328471,0.0003082,70.0002,8.2563,269.2897,90.7909,4.4554e-06,-4e-07,0.0,0 STARLINK-5592,1 55741U 23028A   24036.73246645 -.00000040  00000-0  44554-5 0  9991,2 55741  70.0002   8.2563 0003082 269.2897  90.7909 14.98328471 51741,6950.198,96.107,574.205,569.921,0.0
55741.0,STARLINK-5592,PAYLOAD,2024-02-05 22:23:09,14.98329216,0.0003067,70.0002,7.7513,269.4498,90.631,9.5609e-06,2.1e-07,0.0,0 STARLINK-5592,1 55741U 23028A   24036.93274616  .00000021  00000-0  95609-5 0  9997,2 55741  70.0002   7.7513 0003067 269.4498  90.6310 14.98329216 51970,6950.195,96.107,574.192,569.929,0.0
55741.0,STARLINK-5592,PAYLOAD,2024-02-06 11:12:12,14.98340653,0.0003119,70.0004,6.4046,271.3907,88.6894,0.00015264,1.729e-05,0.0,0 STARLINK-5592,1 55741U 23028A   24037.46681443  .00001729  00000-0  15264-3 0  9999,2 55741  70.0004   6.4046 0003119 271.3907  88.6894 14.98340653 51853,6950.16,96.106,574.193,569.857,0.0
55741.0,STARLINK-5592,PAYLOAD,2024-02-06 12:48:20,14.98342652,0.0003076,70.0004,6.2363,270.771,89.3096,0.00011917,1.33e-05,0.0,0 STARLINK-5592,1 55741U 23028A   24037.53357327  .00001330  00000-0  11917-3 0  9997,2 55741  70.0004   6.2363 0003076 270.7710  89.3096 14.98342652 52067,6950.154,96.106,574.157,569.881,0.0
55741.0,STARLINK-5592,PAYLOAD,2024-02-06 19:12:54,14.98325998,0.0003074,70.0004,5.5631,267.9122,92.1685,2.5973e-05,2.17e-06,0.0,0 STARLINK-5592,1 55741U 23028A   24037.80062646  .00000217  00000-0  25973-4 0  9995,2 55741  70.0004   5.5631 0003074 267.9122  92.1685 14.98325998 51902,6950.205,96.107,574.207,569.934,0.0
55741.0,STARLINK-5592,PAYLOAD,2024-02-06 22:25:10,14.98330817,0.0003076,70.0004,5.2264,267.7917,92.289,3.6576e-05,3.43e-06,0.0,0 STARLINK-5592,1 55741U 23028A   24037.93414367  .00000343  00000-0  36576-4 0  9991,2 55741  70.0004   5.2264 0003076 267.7917  92.2890 14.98330817 52123,6950.19,96.107,574.193,569.917,0.0
55741.0,STARLINK-5592,PAYLOAD,2024-02-07 08:01:57,14.98339795,0.0003097,70.0004,4.2166,268.2992,91.7812,0.00013211,1.484e-05,0.0,0 STARLINK-5592,1 55741U 23028A   24038.33469524  .00001484  00000-0  13211-3 0  9998,2 55741  70.0004   4.2166 0003097 268.2992  91.7812 14.98339795 51980,6950.163,96.106,574.18,569.875,0.0
55741.0,STARLINK-5592,PAYLOAD,2024-02-07 14:26:30,14.98336121,0.0003076,70.0004,3.5431,267.9114,92.1692,5.1852e-05,5.26e-06,0.0,0 STARLINK-5592,1 55741U 23028A   24038.60173911  .00000526  00000-0  51852-4 0  9990,2 55741  70.0004   3.5431 0003076 267.9114  92.1692 14.98336121 52225,6950.174,96.107,574.177,569.901,0.0
55741.0,STARLINK-5592,PAYLOAD,2024-02-07 22:27:11,14.98322277,0.0003038,70.0005,2.7017,267.8474,92.2337,-3.2166e-05,-4.77e-06,0.0,0 STARLINK-5592,1 55741U 23028A   24038.93555011 -.00000477  00000-0 -32166-4 0  9995,2 55741  70.0005   2.7017 0003038 267.8474  92.2337 14.98322277 52272,6950.217,96.107,574.193,569.97,0.0
55741.0,STARLINK-5592,PAYLOAD,2024-02-08 01:39:27,14.98323576,0.000304,70.0005,2.365,268.0423,92.0387,-1.0048e-05,-2.13e-06,0.0,0 STARLINK-5592,1 55741U 23028A   24039.06906948 -.00000213  00000-0 -10048-4 0  9992,2 55741  70.0005   2.3650 0003040 268.0423  92.0387 14.98323576 52097,6950.213,96.107,574.191,569.965,0.0
55741.0,STARLINK-5592,PAYLOAD,2024-02-08 08:03:59,14.98333129,0.0003023,70.0006,1.6919,268.2767,91.8046,6.3245e-05,6.62e-06,0.0,0 STARLINK-5592,1 55741U 23028A   24039.33610287  .00000662  00000-0  63245-4 0  9993,2 55741  70.0006   1.6919 0003023 268.2767  91.8046 14.98333129 52131,6950.183,96.107,574.149,569.947,0.0
55741.0,STARLINK-5592,PAYLOAD,2024-02-08 22:29:12,14.98327238,0.000277,70.0008,0.1779,267.3258,92.7584,0.00016082,1.826e-05,0.0,0 STARLINK-5592,1 55741U 23028A   24039.93694489  .00001826  00000-0  16082-3 0  9994,2 55741  70.0008   0.1779 0002770 267.3258  92.7584 14.98327238 52427,6950.201,96.107,573.992,570.141,0.0
55741.0,STARLINK-5592,PAYLOAD,2024-02-09 06:29:51,14.98334906,0.0002805,70.0009,359.3365,263.738,96.346,9.626e-05,1.056e-05,0.0,0 STARLINK-5592,1 55741U 23028A   24040.27074057  .00001056  00000-0  96260-4 0  9998,2 55741  70.0009 359.3365 0002805 263.7380  96.3460 14.98334906 52471,6950.178,96.107,573.992,570.093,0.0
55741.0,STARLINK-5592,PAYLOAD,2024-02-10 03:19:37,14.98325469,0.0002562,70.0022,357.1497,246.332,113.757,7.043e-05,7.47e-06,0.0,0 STARLINK-5592,1 55741U 23028A   24041.13862763  .00000747  00000-0  70430-4 0  9990,2 55741  70.0022 357.1497 0002562 246.3320 113.7570 14.98325469 52402,6950.207,96.107,573.853,570.291,0.0
55741.0,STARLINK-5592,PAYLOAD,2024-02-10 06:31:53,14.98326417,0.0002563,70.0021,356.8128,248.3241,111.7645,7.7856e-05,8.36e-06,0.0,0 STARLINK-5592,1 55741U 23028A   24041.27214779  .00000836  00000-0  77856-4 0  9991,2 55741  70.0021 356.8128 0002563 248.3241 111.7645 14.98326417 52622,6950.204,96.107,573.85,570.288,0.0
55741.0,STARLINK-5592,PAYLOAD,2024-02-10 22:33:14,14.98331637,0.0002545,70.0021,355.1292,250.2555,109.833,5.3179e-05,5.42e-06,0.0,0 STARLINK-5592,1 55741U 23028A   24041.93974599  .00000542  00000-0  53179-4 0  9993,2 55741  70.0021 355.1292 0002545 250.2555 109.8330 14.98331637 52726,6950.188,96.107,573.822,570.284,0.0
55741.0,STARLINK-5592,PAYLOAD,2024-02-11 03:21:38,14.9833001,0.0002571,70.0022,354.6243,251.5831,108.5049,2.6566e-05,2.24e-06,0.0,0 STARLINK-5592,1 55741U 23028A   24042.14002751  .00000224  00000-0  26566-4 0  9996,2 55741  70.0022 354.6243 0002571 251.5831 108.5049 14.98330010 52555,6950.193,96.107,573.845,570.271,0.0
55741.0,STARLINK-5592,PAYLOAD,2024-02-11 06:33:54,14.98330518,0.0002586,70.0021,354.2875,254.6767,105.4106,2.6927e-05,2.28e-06,0.0,0 STARLINK-5592,1 55741U 23028A   24042.27354704  .00000228  00000-0  26927-4 0  9993,2 55741  70.0021 354.2875 0002586 254.6767 105.4106 14.98330518 52776,6950.191,96.107,573.854,570.259,0.0
55741.0,STARLINK-5592,PAYLOAD,2024-02-11 22:35:14,14.98336195,0.0002763,70.0017,352.6037,261.2171,98.8675,0.00014618,1.652e-05,0.0,0 STARLINK-5592,1 55741U 23028A   24042.94113951  .00001652  00000-0  14618-3 0  9999,2 55741  70.0017 352.6037 0002763 261.2171  98.8675 14.98336195 52877,6950.174,96.107,573.959,570.118,0.0
55741.0,STARLINK-5592,PAYLOAD,2024-02-12 03:23:38,14.98338592,0.0002728,70.0017,352.0985,260.3752,99.7099,0.00017459,1.991e-05,0.0,0 STARLINK-5592,1 55741U 23028A   24043.14141703  .00001991  00000-0  17459-3 0  9990,2 55741  70.0017 352.0985 0002728 260.3752  99.7099 14.98338592 52704,6950.166,96.106,573.927,570.135,0.0
55741.0,STARLINK-5592,PAYLOAD,2024-02-12 06:35:54,14.98343348,0.0002702,70.0019,351.7626,258.9784,101.1071,0.00023375,2.698e-05,0.0,0 STARLINK-5592,1 55741U 23028A   24043.27493341  .00002698  00000-0  23375-3 0  9991,2 55741  70.0019 351.7626 0002702 258.9784 101.1071 14.98343348 52921,6950.152,96.106,573.895,570.139,0.0
55741.0,STARLINK-5592,PAYLOAD,2024-02-12 19:24:59,14.98324293,0.0001889,70.0043,350.4174,233.9253,126.1731,0.00035191,4.108e-05,0.0,0 STARLINK-5592,1 55741U 23028A   24043.80902112  .00004108  00000-0  35191-3 0  9998,2 55741  70.0043 350.4174 0001889 233.9253 126.1731 14.98324293 52806,6950.211,96.107,573.388,570.763,0.0
55741.0,STARLINK-5592,PAYLOAD,2024-02-12 22:37:16,14.9832648,0.0003176,70.0014,350.0784,270.7552,89.3243,1.4574e-05,8.1e-07,0.0,0 STARLINK-5592,1 55741U 23028A   24043.94254786  .00000081  00000-0  14574-4 0  9999,2 55741  70.0014 350.0784 0003176 270.7552  89.3243 14.98326480 53022,6950.204,96.107,574.276,569.861,0.0
55741.0,STARLINK-5592,PAYLOAD,2024-02-13 03:25:40,14.98330324,0.0003024,70.0013,349.5732,264.043,96.0385,4.2625e-05,4.16e-06,0.0,0 STARLINK-5592,1 55741U 23028A   24044.14282473  .00000416  00000-0  42625-4 0  9996,2 55741  70.0013 349.5732 0003024 264.0430  96.0385 14.98330324 52854,6950.192,96.107,574.159,569.955,0.0
55741.0,STARLINK-5592,PAYLOAD,2024-02-13 13:02:29,14.98324359,0.0002358,70.0045,348.5623,281.4181,78.6713,-2.689e-05,-4.14e-06,0.0,0 STARLINK-5592,1 55741U 23028A   24044.54339533 -.00000414  00000-0 -26890-4 0  9996,2 55741  70.0045 348.5623 0002358 281.4181  78.6713 14.98324359 53114,6950.21,96.107,573.714,570.436,0.0
